[
    {
        "Altitude(m)": 612502.18806031,
        "Argument of Periapsis(deg)": 0.0,
        "Eccentricity": 0.0,
        "Inclination(deg)": 60.0,
        "Latitude(deg)": -28.135951959159215,
        "Longitude(deg)": 112.14823230873647,
        "Mean Anomaly(deg)": -32.72730000000001,
        "RAAN(deg)": 229.99999999999997,
        "Satellite Name": "Test1 1032",
        "Satellite Number": 1032,
        "Semi-Major Axis(m)": 6980739.136638005,
        "Time(s)": 0
    },
    {
        "Altitude(m)": 612308.6360890158,
        "Argument of Periapsis(deg)": 0.00010418945913296404,
        "Eccentricity": 0.0,
        "Inclination(deg)": 60.0,
        "Latitude(deg)": -27.62300746150009,
        "Longitude(deg)": 112.50170675643267,
        "Mean Anomaly(deg)": -32.10719385453816,
        "RAAN(deg)": 229.99957995086024,
        "Satellite Name": "Test1 1032",
        "Satellite Number": 1032,
        "Semi-Major Axis(m)": 6980739.136638005,
        "Time(s)": 10
    }
]